{
  "links" : {
    "next" : "https://api.nasa.gov/neo/rest/v1/feed?start_date=2005-04-23&end_date=2005-04-23&detailed=true&api_key=t0TVs3DtDT2H8Oy2Zy8m2eVrNsAVKAexjcZXUckd",
    "prev" : "https://api.nasa.gov/neo/rest/v1/feed?start_date=2005-04-21&end_date=2005-04-21&detailed=true&api_key=t0TVs3DtDT2H8Oy2Zy8m2eVrNsAVKAexjcZXUckd",
    "self" : "https://api.nasa.gov/neo/rest/v1/feed?start_date=2005-04-22&end_date=2005-04-22&detailed=true&api_key=t0TVs3DtDT2H8Oy2Zy8m2eVrNsAVKAexjcZXUckd"
  },
  "element_count" : 9,
  "near_earth_objects" : {
    "2005-04-22" : [ {
      "links" : {
        "self" : "https://api.nasa.gov/neo/rest/v1/neo/3632682?api_key=t0TVs3DtDT2H8Oy2Zy8m2eVrNsAVKAexjcZXUckd"
      },
      "neo_reference_id" : "3632682",
      "name" : "(2013 FK)",
      "nasa_jpl_url" : "http://ssd.jpl.nasa.gov/sbdb.cgi?sstr=3632682",
      "absolute_magnitude_h" : 23.3,
      "estimated_diameter" : {
        "kilometers" : {
          "estimated_diameter_min" : 0.058150704,
          "estimated_diameter_max" : 0.130028927
        },
        "meters" : {
          "estimated_diameter_min" : 58.1507039646,
          "estimated_diameter_max" : 130.0289270043
        },
        "miles" : {
          "estimated_diameter_min" : 0.0361331611,
          "estimated_diameter_max" : 0.0807962044
        },
        "feet" : {
          "estimated_diameter_min" : 190.7831555951,
          "estimated_diameter_max" : 426.6041048727
        }
      },
      "is_potentially_hazardous_asteroid" : false,
      "close_approach_data" : [ {
        "close_approach_date" : "2005-04-22",
        "epoch_date_close_approach" : 1114153200000,
        "relative_velocity" : {
          "kilometers_per_second" : "23.8529038733",
          "kilometers_per_hour" : "85870.4539438008",
          "miles_per_hour" : "53356.5606741356"
        },
        "miss_distance" : {
          "astronomical" : "0.4749509347",
          "lunar" : "184.7559204102",
          "kilometers" : "71051648",
          "miles" : "44149448"
        },
        "orbiting_body" : "Earth"
      } ],
      "orbital_data" : {
        "orbit_id" : "27",
        "orbit_determination_date" : "2017-04-06 08:46:23",
        "orbit_uncertainty" : "0",
        "minimum_orbit_intersection" : ".0161092",
        "jupiter_tisserand_invariant" : "3.166",
        "epoch_osculation" : "2458000.5",
        "eccentricity" : ".6147757879795454",
        "semi_major_axis" : "2.511094072630688",
        "inclination" : "3.474598734475299",
        "ascending_node_longitude" : "327.3288302474416",
        "orbital_period" : "1453.425920723744",
        "perihelion_distance" : ".9673342354383909",
        "perihelion_argument" : "177.828598759173",
        "aphelion_distance" : "4.054853909822985",
        "perihelion_time" : "2457796.603487855890",
        "mean_anomaly" : "50.50325807821567",
        "mean_motion" : ".247690642410406",
        "equinox" : "J2000"
      }
    }, {
      "links" : {
        "self" : "https://api.nasa.gov/neo/rest/v1/neo/3781708?api_key=t0TVs3DtDT2H8Oy2Zy8m2eVrNsAVKAexjcZXUckd"
      },
      "neo_reference_id" : "3781708",
      "name" : "(2017 RO17)",
      "nasa_jpl_url" : "http://ssd.jpl.nasa.gov/sbdb.cgi?sstr=3781708",
      "absolute_magnitude_h" : 26.207,
      "estimated_diameter" : {
        "kilometers" : {
          "estimated_diameter_min" : 0.015245967,
          "estimated_diameter_max" : 0.0340910187
        },
        "meters" : {
          "estimated_diameter_min" : 15.2459670423,
          "estimated_diameter_max" : 34.0910186893
        },
        "miles" : {
          "estimated_diameter_min" : 0.0094734018,
          "estimated_diameter_max" : 0.0211831704
        },
        "feet" : {
          "estimated_diameter_min" : 50.0195785111,
          "estimated_diameter_max" : 111.8471777566
        }
      },
      "is_potentially_hazardous_asteroid" : false,
      "close_approach_data" : [ {
        "close_approach_date" : "2005-04-22",
        "epoch_date_close_approach" : 1114153200000,
        "relative_velocity" : {
          "kilometers_per_second" : "18.0402024692",
          "kilometers_per_hour" : "64944.728889161",
          "miles_per_hour" : "40354.128903379"
        },
        "miss_distance" : {
          "astronomical" : "0.4663708035",
          "lunar" : "181.4182434082",
          "kilometers" : "69768080",
          "miles" : "43351872"
        },
        "orbiting_body" : "Earth"
      } ],
      "orbital_data" : {
        "orbit_id" : "1",
        "orbit_determination_date" : "2017-09-25 13:12:02",
        "orbit_uncertainty" : "6",
        "minimum_orbit_intersection" : ".00784378",
        "jupiter_tisserand_invariant" : "6.733",
        "epoch_osculation" : "2458000.5",
        "eccentricity" : ".3810238639550345",
        "semi_major_axis" : ".8705862059135486",
        "inclination" : ".9523820604005262",
        "ascending_node_longitude" : "188.5216327797132",
        "orbital_period" : "296.6990114692509",
        "perihelion_distance" : ".538872085830415",
        "perihelion_argument" : "18.56662300011491",
        "aphelion_distance" : "1.202300325996682",
        "perihelion_time" : "2457922.087105269357",
        "mean_anomaly" : "95.14235306428355",
        "mean_motion" : "1.213350857548474",
        "equinox" : "J2000"
      }
    }, {
      "links" : {
        "self" : "https://api.nasa.gov/neo/rest/v1/neo/3781897?api_key=t0TVs3DtDT2H8Oy2Zy8m2eVrNsAVKAexjcZXUckd"
      },
      "neo_reference_id" : "3781897",
      "name" : "(2017 SL16)",
      "nasa_jpl_url" : "http://ssd.jpl.nasa.gov/sbdb.cgi?sstr=3781897",
      "absolute_magnitude_h" : 25.664,
      "estimated_diameter" : {
        "kilometers" : {
          "estimated_diameter_min" : 0.0195773983,
          "estimated_diameter_max" : 0.0437763934
        },
        "meters" : {
          "estimated_diameter_min" : 19.5773983009,
          "estimated_diameter_max" : 43.7763934234
        },
        "miles" : {
          "estimated_diameter_min" : 0.0121648276,
          "estimated_diameter_max" : 0.0272013814
        },
        "feet" : {
          "estimated_diameter_min" : 64.2303114415,
          "estimated_diameter_max" : 143.6233425991
        }
      },
      "is_potentially_hazardous_asteroid" : false,
      "close_approach_data" : [ {
        "close_approach_date" : "2005-04-22",
        "epoch_date_close_approach" : 1114153200000,
        "relative_velocity" : {
          "kilometers_per_second" : "5.5415758794",
          "kilometers_per_hour" : "19949.6731658277",
          "miles_per_hour" : "12395.9510846222"
        },
        "miss_distance" : {
          "astronomical" : "0.1614522019",
          "lunar" : "62.8049087524",
          "kilometers" : "24152906",
          "miles" : "15007920"
        },
        "orbiting_body" : "Earth"
      } ],
      "orbital_data" : {
        "orbit_id" : "1",
        "orbit_determination_date" : "2017-09-27 15:42:08",
        "orbit_uncertainty" : "6",
        "minimum_orbit_intersection" : ".0177601",
        "jupiter_tisserand_invariant" : "6.048",
        "epoch_osculation" : "2458000.5",
        "eccentricity" : ".1540095688212493",
        "semi_major_axis" : "1.002518316473757",
        "inclination" : "8.619935043969701",
        "ascending_node_longitude" : "182.719676573434",
        "orbital_period" : "366.637515319359",
        "perihelion_distance" : ".8481209028182292",
        "perihelion_argument" : "71.26185003829899",
        "aphelion_distance" : "1.156915730129285",
        "perihelion_time" : "2457928.042239851260",
        "mean_anomaly" : "71.1460026964923",
        "mean_motion" : ".9818962461777067",
        "equinox" : "J2000"
      }
    } ]
  }
}